CTC2_L_00154016-03
1 76682U 23294IU  26070.40843750  .00000000  00000+0  00000-0 0  9994
2 76682  50.0000 180.0000 0000000   0.0000   0.0000 14.98995063    10
CTC2_L_00154016-04
1 76683U 23937VH  26070.40843750  .00000000  00000+0  00000-0 0  9999
2 76683  50.0000 180.0000 0000000   0.0000  90.0000 14.98995063    10
CTC2_L_00154017-01
1 76684U 24286VX  26070.40843750  .00000000  00000+0  00000-0 0  9998
2 76684  50.0000 192.0000 0000000   0.0000 192.0000 14.98995063    17
CTC2_L_00154017-02
1 76685U 25738PF  26070.40843750  .00000000  00000+0  00000-0 0  9992
2 76685  50.0000 192.0000 0000000   0.0000 282.0000 14.98995063    18
CTC2_L_00154017-03
1 76686U 26231ZE  26070.40843750  .00000000  00000+0  00000-0 0  9992
2 76686  50.0000 192.0000 0000000   0.0000  12.0000 14.98995063    10
CTC2_L_00154017-04
1 76687U 24424OL  26070.40843750  .00000000  00000+0  00000-0 0  9995
2 76687  50.0000 192.0000 0000000   0.0000 102.0000 14.98995063    11
CTC2_L_00154018-01
1 76688U 24920GY  26070.40843750  .00000000  00000+0  00000-0 0  9997
2 76688  50.0000 204.0000 0000000   0.0000 204.0000 14.98995063    19
CTC2_L_00154018-02
1 76689U 22090BA  26070.40843750  .00000000  00000+0  00000-0 0  9994
2 76689  50.0000 204.0000 0000000   0.0000 294.0000 14.98995063    19
CTC2_L_00154018-03
1 76690U 23054HQ  26070.40843750  .00000000  00000+0  00000-0 0  9997
2 76690  50.0000 204.0000 0000000   0.0000  24.0000 14.98995063    12
CTC2_L_00154018-04
1 76691U 22941VP  26070.40843750  .00000000  00000+0  00000-0 0  9992
2 76691  50.0000 204.0000 0000000   0.0000 114.0000 14.98995063    13
CTC2_L_00154019-01
1 76692U 24424T   26070.40843750  .00000000  00000+0  00000-0 0  9991
2 76692  50.0000 216.0000 0000000   0.0000 216.0000 14.98995063    10
CTC2_L_00154019-02
1 76693U 22740IX  26070.40843750  .00000000  00000+0  00000-0 0  9991
2 76693  50.0000 216.0000 0000000   0.0000 306.0000 14.98995063    11
CTC2_L_00154019-03
1 76694U 26608Y   26070.40843750  .00000000  00000+0  00000-0 0  9999
2 76694  50.0000 216.0000 0000000   0.0000  36.0000 14.98995063    12
CTC2_L_00154019-04
1 76695U 24474D   26070.40843750  .00000000  00000+0  00000-0 0  9999
2 76695  50.0000 216.0000 0000000   0.0000 126.0000 14.98995063    13
CTC2_L_00154020-01
1 76696U 22449PE  26070.40843750  .00000000  00000+0  00000-0 0  9990
2 76696  50.0000 228.0000 0000000   0.0000 228.0000 14.98995063    10
CTC2_L_00154020-02
1 76697U 22451YW  26070.40843750  .00000000  00000+0  00000-0 0  9994
2 76697  50.0000 228.0000 0000000   0.0000 318.0000 14.98995063    11
CTC2_L_00154020-03
1 76698U 24444DR  26070.40843750  .00000000  00000+0  00000-0 0  9999
2 76698  50.0000 228.0000 0000000   0.0000  48.0000 14.98995063    12
CTC2_L_00154020-04
1 76699U 24991AD  26070.40843750  .00000000  00000+0  00000-0 0  9997
2 76699  50.0000 228.0000 0000000   0.0000 138.0000 14.98995063    13
CTC2_L_00154021-01
1 76700U 24355AK  26070.40843750  .00000000  00000+0  00000-0 0  9994
2 76700  50.0000 240.0000 0000000   0.0000 240.0000 14.98995063    14
CTC2_L_00154021-02
1 76701U 26608CA  26070.40843750  .00000000  00000+0  00000-0 0  9998
2 76701  50.0000 240.0000 0000000   0.0000 330.0000 14.98995063    15
CTC2_L_00154021-03
1 76702U 26979DQ  26070.40843750  .00000000  00000+0  00000-0 0  9990
2 76702  50.0000 240.0000 0000000   0.0000  60.0000 14.98995063    16
CTC2_L_00154021-04
1 76703U 23083KS  26070.40843750  .00000000  00000+0  00000-0 0  9994
2 76703  50.0000 240.0000 0000000   0.0000 150.0000 14.98995063    17
CTC2_L_00154022-01
1 76704U 23481AN  26070.40843750  .00000000  00000+0  00000-0 0  9997
2 76704  50.0000 252.0000 0000000   0.0000 252.0000 14.98995063    14
CTC2_L_00154022-02
1 76705U 22473MG  26070.40843750  .00000000  00000+0  00000-0 0  9998
2 76705  50.0000 252.0000 0000000   0.0000 342.0000 14.98995063    15
CTC2_L_00154022-03
1 76706U 26348BF  26070.40843750  .00000000  00000+0  00000-0 0  9994
2 76706  50.0000 252.0000 0000000   0.0000  72.0000 14.98995063    16
CTC2_L_00154022-04
1 76707U 23173UO  26070.40843750  .00000000  00000+0  00000-0 0  9998
2 76707  50.0000 252.0000 0000000   0.0000 162.0000 14.98995063    17
CTC2_L_00154023-01
1 76708U 22471YK  26070.40843750  .00000000  00000+0  00000-0 0  9999
2 76708  50.0000 264.0000 0000000   0.0000 264.0000 14.98995063    14
CTC2_L_00154023-02
1 76709U 23658FV  26070.40843750  .00000000  00000+0  00000-0 0  9998
2 76709  50.0000 264.0000 0000000   0.0000 354.0000 14.98995063    15
CTC2_L_00154023-03
1 76710U 24602NO  26070.40843750  .00000000  00000+0  00000-0 0  9990
2 76710  50.0000 264.0000 0000000   0.0000  84.0000 14.98995063    17
CTC2_L_00154023-04
1 76711U 25021LD  26070.40843750  .00000000  00000+0  00000-0 0  9997
2 76711  50.0000 264.0000 0000000   0.0000 174.0000 14.98995063    18
CTC2_L_00154024-01
1 76712U 26010VA  26070.40843750  .00000000  00000+0  00000-0 0  9997
2 76712  50.0000 276.0000 0000000   0.0000 276.0000 14.98995063    15
CTC2_L_00154024-02
1 76713U 24077OU  26070.40843750  .00000000  00000+0  00000-0 0  9999
2 76713  50.0000 276.0000 0000000   0.0000   6.0000 14.98995063    17
CTC2_L_00154024-03
1 76714U 26546YW  26070.40843750  .00000000  00000+0  00000-0 0  9993
2 76714  50.0000 276.0000 0000000   0.0000  96.0000 14.98995063    17
CTC2_L_00154024-04
1 76715U 24098WQ  26070.40843750  .00000000  00000+0  00000-0 0  9994
2 76715  50.0000 276.0000 0000000   0.0000 186.0000 14.98995063    18
CTC2_L_00154025-01
1 76716U 25313PY  26070.40843750  .00000000  00000+0  00000-0 0  9996
2 76716  50.0000 288.0000 0000000   0.0000 288.0000 14.98995063    15
CTC2_L_00154025-02
1 76717U 25605LM  26070.40843750  .00000000  00000+0  00000-0 0  9991
2 76717  50.0000 288.0000 0000000   0.0000  18.0000 14.98995063    17
CTC2_L_00154025-03
1 76718U 26764IR  26070.40843750  .00000000  00000+0  00000-0 0  9999
2 76718  50.0000 288.0000 0000000   0.0000 108.0000 14.98995063    18
CTC2_L_00154025-04
1 76719U 25609AM  26070.40843750  .00000000  00000+0  00000-0 0  9997
2 76719  50.0000 288.0000 0000000   0.0000 198.0000 14.98995063    18
CTC2_L_00154026-01
1 76720U 26693TI  26070.40843750  .00000000  00000+0  00000-0 0  9993
2 76720  50.0000 300.0000 0000000   0.0000 300.0000 14.98995063    10
CTC2_L_00154026-02
1 76721U 25227HR  26070.40843750  .00000000  00000+0  00000-0 0  9996
2 76721  50.0000 300.0000 0000000   0.0000  30.0000 14.98995063    11
CTC2_L_00154026-03
1 76722U 23258SE  26070.40843750  .00000000  00000+0  00000-0 0  9999
2 76722  50.0000 300.0000 0000000   0.0000 120.0000 14.98995063    12
CTC2_L_00154026-04
1 76723U 26080ZR  26070.40843750  .00000000  00000+0  00000-0 0  9996
2 76723  50.0000 300.0000 0000000   0.0000 210.0000 14.98995063    13
CTC2_L_00154027-01
1 76724U 23583TI  26070.40843750  .00000000  00000+0  00000-0 0  9992
2 76724  50.0000 312.0000 0000000   0.0000 312.0000 14.98995063    10
CTC2_L_00154027-02
1 76725U 23961MP  26070.40843750  .00000000  00000+0  00000-0 0  9993
2 76725  50.0000 312.0000 0000000   0.0000  42.0000 14.98995063    11
CTC2_L_00154027-03
1 76726U 26992LN  26070.40843750  .00000000  00000+0  00000-0 0  9991
2 76726  50.0000 312.0000 0000000   0.0000 132.0000 14.98995063    12
CTC2_L_00154027-04
1 76727U 23507CM  26070.40843750  .00000000  00000+0  00000-0 0  9991
2 76727  50.0000 312.0000 0000000   0.0000 222.0000 14.98995063    13
CTC2_L_00154028-01
1 76728U 25172JQ  26070.40843750  .00000000  00000+0  00000-0 0  9992
2 76728  50.0000 324.0000 0000000   0.0000 324.0000 14.98995063    10
CTC2_L_00154028-02
1 76729U 23459SY  26070.40843750  .00000000  00000+0  00000-0 0  9999
2 76729  50.0000 324.0000 0000000   0.0000  54.0000 14.98995063    11
CTC2_L_00154028-03
1 76730U 22315LG  26070.40843750  .00000000  00000+0  00000-0 0  9991
2 76730  50.0000 324.0000 0000000   0.0000 144.0000 14.98995063    13
CTC2_L_00154028-04
1 76731U 24859GP  26070.40843750  .00000000  00000+0  00000-0 0  9997
2 76731  50.0000 324.0000 0000000   0.0000 234.0000 14.98995063    14
CTC2_L_00154029-01
1 76732U 24553G   26070.40843750  .00000000  00000+0  00000-0 0  9999
2 76732  50.0000 336.0000 0000000   0.0000 336.0000 14.98995063    11
CTC2_L_00154029-02
1 76733U 22571PU  26070.40843750  .00000000  00000+0  00000-0 0  9998
2 76733  50.0000 336.0000 0000000   0.0000  66.0000 14.98995063    12
CTC2_L_00154029-03
1 76734U 24544LA  26070.40843750  .00000000  00000+0  00000-0 0  9991
2 76734  50.0000 336.0000 0000000   0.0000 156.0000 14.98995063    13
CTC2_L_00154029-04
1 76735U 23022XO  26070.40843750  .00000000  00000+0  00000-0 0  9992
2 76735  50.0000 336.0000 0000000   0.0000 246.0000 14.98995063    14
CTC2_L_00154030-01
1 76736U 22071XT  26070.40843750  .00000000  00000+0  00000-0 0  9996
2 76736  50.0000 348.0000 0000000   0.0000 348.0000 14.98995063    11
CTC2_L_00154030-02
1 76737U 23358DQ  26070.40843750  .00000000  00000+0  00000-0 0  9996
2 76737  50.0000 348.0000 0000000   0.0000  78.0000 14.98995063    12
CTC2_L_00154030-03
1 76738U 23592JY  26070.40843750  .00000000  00000+0  00000-0 0  9997
2 76738  50.0000 348.0000 0000000   0.0000 168.0000 14.98995063    13
CTC2_L_00154030-04
1 76739U 23562FH  26070.40843750  .00000000  00000+0  00000-0 0  9995
2 76739  50.0000 348.0000 0000000   0.0000 258.0000 14.98995063    14
